LANDSAT 9               
1 49260U 21088A   24087.79784699  .00000985  00000+0  22855-3 0  9996
2 49260  98.1933 158.7729 0001391  90.3787 269.7571 14.57136323132832
